IRIDIUM 166             
1 43570U 18061B   24122.42257781  .00000458  00000+0  15635-3 0  9991
2 43570  86.4018  21.3522 0002132  77.8484 282.2950 14.34216571302062
IRIDIUM 158             
1 43571U 18061C   24122.46062285  .00000025  00000+0  19781-5 0  9997
2 43571  86.4018  21.3455 0002038  87.0958 273.0471 14.34213400302033
IRIDIUM 165             
1 43572U 18061D   24122.41623326  .00000308  00000+0  10288-3 0  9997
2 43572  86.4018  21.3956 0001980  83.4590 276.6831 14.34217539302055
IRIDIUM 155             
1 43573U 18061E   24122.44794203  .00000342  00000+0  11494-3 0  9992
2 43573  86.4014  21.2898 0002248  80.7525 279.3925 14.34214714302025
IRIDIUM 154             
1 43574U 18061F   24122.42891947  .00000036  00000+0  56440-5 0  9996
2 43574  86.4016  21.3931 0002417  89.1171 271.0302 14.34216656302075
IRIDIUM 163             
1 43575U 18061G   24122.47965826  .00000342  00000+0  11505-3 0  9991
2 43575  86.4014  21.3118 0002255  84.2117 275.9336 14.34215390302059
IRIDIUM 156             
1 43576U 18061H   24122.45428702  .00000449  00000+0  15326-3 0  9990
2 43576  86.4017  21.3286 0002142  83.1831 276.9608 14.34219278302046
IRIDIUM 164             
1 43577U 18061J   24122.43526157  .00000144  00000+0  44197-4 0  9993
2 43577  86.4015  21.3648 0002081  93.5743 266.5691 14.34214025302082
